STARLINK-34423          
1 64460U 25130Y   26068.34044006  .00030096  00000+0  10240-2 0  9990
2 64460  53.1589  89.8674 0001314  68.6661 291.4480 15.30204972 40653
STARLINK-34418          
1 64461U 25130Z   26068.45113259  .00031598  00000+0  10745-2 0  9998
2 64461  53.1597  89.8429 0001291  79.0481 281.0665 15.30198272 40667
STARLINK-34336          
1 64462U 25130AA  26068.34635598  .00017049  00000+0  58711-3 0  9993
2 64462  53.1586  92.6753 0001159  80.7300 279.3832 15.30161213 40616
STARLINK-34400          
1 64463U 25130AB  26068.34002696  .00014109  00000+0  48788-3 0  9998
2 64463  53.1599  92.7018 0001760  96.8048 263.3153 15.30180001 40616
STARLINK-34429          
1 64464U 25130AC  26068.29517578  .00023807  00000+0  81316-3 0  9992
2 64464  53.1593  90.2926 0001716  34.6476 325.4637 15.30206785 40646
STARLINK-34449          
1 64465U 25130AD  26068.44372734  .00036093  00000+0  12261-2 0  9996
2 64465  53.1607  89.7934 0001096  84.6516 275.4610 15.30167062 40667
STARLINK-34493          
1 64472U 25133A   26068.41809618  .00032880  00000+0  11177-2 0  9995
2 64472  53.1576 118.2895 0001183  82.1844 277.9291 15.30190656 41149
STARLINK-34492          
1 64473U 25133B   26068.41492948  .00022506  00000+0  76966-3 0  9992
2 64473  53.1582 118.2701 0001242  60.5066 299.6059 15.30201008 41142
STARLINK-34474          
1 64474U 25133C   26068.41176457  .00018785  00000+0  64493-3 0  9993
2 64474  53.1580 118.2474 0001295  64.4406 295.6728 15.30190526 41126
STARLINK-34523          
1 64475U 25133D   26068.40543232  .00029934  00000+0  10182-2 0  9995
2 64475  53.1582 118.2092 0001344  89.5276 270.5878 15.30216493 41123
STARLINK-34496          
1 64476U 25133E   26068.52973073  .00033481  00000+0  11374-2 0  9995
2 64476  53.1592 117.5629 0001232  82.7578 277.3563 15.30202378 41166
STARLINK-34375          
1 64477U 25133F   26068.45808478  .00021442  00000+0  73386-3 0  9990
2 64477  53.1600 117.8270 0001126  80.7451 279.3678 15.30206184 41159
STARLINK-34490          
1 64478U 25133G   26068.44754221  .00068461  00000+0  22967-2 0  9996
2 64478  53.1602 117.7617 0001532  84.3428 275.7747 15.30280781 41153
STARLINK-34528          
1 64479U 25133H   26068.45068362  .00007932  00000+0  27991-3 0  9991
2 64479  53.1600 117.7817 0001309  68.2412 291.8728 15.30170743 41132
STARLINK-34518          
1 64480U 25133J   26068.50967989  .00023703  00000+0  81004-3 0  9991
2 64480  53.1587 117.4416 0001296  94.6877 265.4271 15.30193054 41009
STARLINK-34526          
1 64481U 25133K   26068.44119850  .00013505  00000+0  46733-3 0  9990
2 64481  53.1572 117.7263 0001248 102.7430 257.3710 15.30195133 41042
STARLINK-34527          
1 64482U 25133L   26068.43170100  .00019870  00000+0  68136-3 0  9997
2 64482  53.1573 117.6603 0001126  91.2713 268.8417 15.30191994 41156
STARLINK-34420          
1 64483U 25133M   26068.42537117  .00030904  00000+0  10515-2 0  9990
2 64483  53.1574 117.6231 0001190  87.5996 272.5141 15.30191434 41152
STARLINK-34509          
1 64484U 25133N   26068.42231232  .00023451  00000+0  80096-3 0  9991
2 64484  53.1575 118.3093 0001347  90.6143 269.5012 15.30217565 41147
STARLINK-34409          
1 64485U 25133P   26068.35488816  .00003884  00000+0  14324-3 0  9995
2 64485  53.1572 118.5967 0001142  76.8573 283.2555 15.30187380 41138
STARLINK-34520          
1 64486U 25133Q   26068.41703804  .00017858  00000+0  61370-3 0  9999
2 64486  53.1578 118.2758 0001291  74.5436 285.5707 15.30194454 41143
STARLINK-34477          
1 64487U 25133R   26068.54450301  .00044675  00000+0  15112-2 0  9994
2 64487  53.1576 117.6490 0001101  82.7412 277.3713 15.30205457 41156
STARLINK-34217          
1 64488U 25133S   26068.41070719  .00015069  00000+0  51986-3 0  9997
2 64488  53.1586 118.2339 0001098 105.5551 254.5571 15.30199689 41035
STARLINK-34307          
1 64489U 25133T   26068.53817192  .00028283  00000+0  96344-3 0  9994
2 64489  53.1581 117.6085 0001192  76.4205 283.6928 15.30198679 41148
STARLINK-34505          
1 64490U 25133U   26068.53499537  .00039134  00000+0  13246-2 0  9991
2 64490  53.1584 117.5822 0001617  99.3261 260.7923 15.30246488 41142
STARLINK-34530          
1 64491U 25133V   26068.40120749  .00019701  00000+0  67542-3 0  9991
2 64491  53.1589 118.1746 0001292 142.0568 218.0524 15.30205250 41128
STARLINK-34522          
1 64492U 25133W   26068.39804266  .00021118  00000+0  72359-3 0  9990
2 64492  53.1593 118.1570 0002158  32.2245 327.8887 15.30177735 41142
STARLINK-34462          
1 64493U 25133X   26068.32956381  .00035030  00000+0  11886-2 0  9995
2 64493  53.1593 118.4397 0001309  83.9572 276.1578 15.30217662 41132
STARLINK-34226          
1 64494U 25133Y   26068.45702711  .00016612  00000+0  57171-3 0  9999
2 64494  53.1600 117.8139 0001046  85.5253 274.5868 15.30201777 40987
STARLINK-34364          
1 64495U 25133Z   26068.52075354  .00027498  00000+0  93719-3 0  9996
2 64495  53.1589 115.3473 0001145  83.2441 276.8690 15.30197284 41191
STARLINK-34268          
1 64496U 25133AA  26068.52023249  .00024503  00000+0  83691-3 0  9995
2 64496  53.1597 117.4973 0001419  74.9489 285.1668 15.30191923 41161
STARLINK-34363          
1 64497U 25133AB  26068.44965454  .00013108  00000+0  45497-3 0  9991
2 64497  53.1610 117.7629 0001463  77.9990 282.1175 15.30124969 41153
STARLINK-34427          
1 64498U 25133AC  26068.44647379  .00014078  00000+0  48667-3 0  9994
2 64498  53.1593 117.7455 0001212  91.1588 268.9552 15.30190262 41154
STARLINK-34280          
1 64594U 25137A   26067.96199826  .00019110  00000+0  65590-3 0  9996
2 64594  53.1589 338.6128 0000968  62.6118 297.4981 15.30188595 40626
STARLINK-34517          
1 64595U 25137B   26067.91567892  .00047949  00000+0  16191-2 0  9997
2 64595  53.1567 339.0295 0001501  77.4321 282.6847 15.30230877 40614
STARLINK-34510          
1 64596U 25137C   26067.97571904  .00050477  00000+0  17040-2 0  9997
2 64596  53.1565 338.6961 0000683  66.7259 293.3814 15.30215385 40620
STARLINK-34486          
1 64597U 25137D   26067.93467230  .00049328  00000+0  16682-2 0  9994
2 64597  53.1604 339.1458 0001362 103.9116 256.2037 15.30168246 40610
STARLINK-34463          
1 64598U 25137E   26067.92728730  .00029848  00000+0  10153-2 0  9991
2 64598  53.1597 339.0982 0001098  90.4431 269.6696 15.30216489 40611
STARLINK-34294          
1 64599U 25137F   26067.97677212  .00045731  00000+0  15459-2 0  9998
2 64599  53.1586 338.7011 0000753 120.3939 239.7136 15.30217073 40620
STARLINK-34504          
1 64600U 25137G   26067.93256122  .00037306  00000+0  12648-2 0  9996
2 64600  53.1613 339.1360 0000800 162.7693 197.3335 15.30214645 40617
STARLINK-34508          
1 64601U 25137H   26067.95251904  .00024114  00000+0  82430-3 0  9992
2 64601  53.1611 338.5434 0001212  83.3524 276.7614 15.30174646 40629
STARLINK-34435          
1 64602U 25137J   26067.97360424  .00038820  00000+0  13161-2 0  9996
2 64602  53.1577 338.6802 0000623  75.3588 284.7482 15.30197931 40621
STARLINK-34475          
1 64603U 25137K   26067.96727065  .00035621  00000+0  12091-2 0  9991
2 64603  53.1588 338.6374 0001177 131.5254 228.5848 15.30198938 40628
STARLINK-34488          
1 64604U 25137L   26067.94933616  .00030610  00000+0  10410-2 0  9997
2 64604  53.1601 338.5302 0000958  48.7878 311.3205 15.30210994 40627
STARLINK-34516          
1 64605U 25137M   26067.93772506  .00025375  00000+0  86589-3 0  9999
2 64605  53.1593 338.4574 0000849  39.3923 320.7140 15.30201520 40722
STARLINK-34073          
1 64606U 25137N   26067.94510923  .00027665  00000+0  94336-3 0  9997
2 64606  53.1599 338.5009 0001058  42.9401 317.1682 15.30177753 40504
STARLINK-34532          
1 64607U 25137P   26067.91769513  .00037975  00000+0  12874-2 0  9997
2 64607  53.1614 348.9771 0001279  92.0813 268.0334 15.30209423 40476
STARLINK-34519          
1 64608U 25137Q   26067.95881976  .00041693  00000+0  14099-2 0  9993
2 64608  53.1583 338.5883 0000990  75.2538 284.8572 15.30247518 40621
STARLINK-34513          
1 64609U 25137R   26067.89035126  .00036464  00000+0  12370-2 0  9995
2 64609  53.1593 338.8720 0001330  20.6086 339.4968 15.30206570 40705
STARLINK-34569          
1 64610U 25137S   26067.91989824  .00030728  00000+0  10449-2 0  9995
2 64610  53.1575 339.0552 0000821  71.3445 288.7645 15.30214476 40611
STARLINK-34494          
1 64611U 25137T   26067.96515985  .00029579  00000+0  10061-2 0  9996
2 64611  53.1585 338.6241 0001254  67.5435 292.5699 15.30222801 40624
STARLINK-34521          
1 64612U 25137U   26067.95460791  .00039887  00000+0  13509-2 0  9993
2 64612  53.1596 338.5594 0000634 155.5698 204.5333 15.30216336 40621
STARLINK-34500          
1 64613U 25137V   26067.97783189  .00042823  00000+0  14493-2 0  9992
2 64613  53.1579 338.7058 0000856 116.5490 243.5599 15.30208905 40724
STARLINK-34440          
1 64614U 25137W   26068.23170133  .00031211  00000+0  10617-2 0  9995
2 64614  53.1580 337.4425 0001430  79.7007 280.4155 15.30193005 40669
STARLINK-34469          
1 64615U 25137X   26067.94089066  .00046203  00000+0  15617-2 0  9999
2 64615  53.1603 338.4752 0000774  77.5276 282.5811 15.30214114 40627
STARLINK-34413          
1 64616U 25137Y   26068.18643604  .00029236  00000+0  99584-3 0  9994
2 64616  53.1576 337.8707 0001129  59.9579 300.1533 15.30183727 40752
STARLINK-34417          
1 64617U 25137Z   26067.92458403  .00016468  00000+0  56705-3 0  9998
2 64617  53.1587 326.0780 0000981  63.9951 296.1151 15.30191395 40895
STARLINK-34415          
1 64618U 25137AA  26067.96092468 -.00023021  00000+0 -76797-3 0  9996
2 64618  53.1591 338.5965 0001151  24.5556 335.5499 15.30182018 40624
STARLINK-34416          
1 64619U 25137AB  26067.95777283  .00038355  00000+0  12998-2 0  9997
2 64619  53.1598 338.5705 0000504 157.6131 202.4892 15.30216090 40629
